title,x,y,lat,lng
สถานีตำรวจนครบาลโคกคราม,677600.5974,1529692.197,13.83142827310516,100.64319866505937
สถานีตำรวจนครบาลมีนบุรี,687496.3798,1528009.578,13.81559036061664,100.73461499279041
สถานีตำรวจนครบาลเตาปูน,665524.7106,1527746.82,13.814567372082431,100.53138435875108
สถานีตำรวจนครบาลบางโพ,664185.5573,1527056.537,13.808404903133544,100.51895759945323
สถานีตำรวจนครบาลบางชัน,682325.3438,1526495.141,13.802235909199293,100.68669182100642
สถานีตำรวจนครบาลสุทธิสาร,670144.7923,1525216.101,13.791422638150062,100.57396322500215
สถานีตำรวจนครบาลบางซื่อ,667298.4518,1524698.207,13.786908595837106,100.54760852280893
สถานีตำรวจนครบาลบึงกุ่ม,679414.4398,1524027.146,13.780112697901076,100.65961346869416
สถานีตำรวจนครบาลสามเสน,663205.9055,1523975.574,13.780611982546642,100.50971753799699
สถานีตำรวจนครบาลตลิ่งชัน,656345.775,1523932.447,13.78060326844965,100.4462709255714
สถานีตำรวจนครบาลห้วยขวาง,669732.7253,1523627.778,13.7770905652495,100.57005638800094
สถานีตำรวจนครบาลดุสิต,664411.4134,1523624.146,13.777366778409906,100.52084562564059
สถานีตำรวจนครบาลบวรมงคล,661883.4507,1523266.387,13.774276344515915,100.49744646177756
สถานีตำรวจนครบาลดินแดง,668321.0802,1523034.137,13.771807701190774,100.55696633314533
สถานีตำรวจนครบาลวังทองหลาง,675130.3096,1522969.964,13.770821378970625,100.61993007397281
สถานีตำรวจนครบาลลาดพร้าว,678099.6895,1522709.12,13.768281557822524,100.64737192179813
สถานีตำรวจนครบาลบางยี่ขัน,661255.3232,1522291.237,13.76549715157775,100.49158169150064
สถานีตำรวจนครบาลร่มเกล้า,687536.068,1522149.783,13.762627033844263,100.73459086953062
สถานีตำรวจนครบาลหัวหมาก,675916.8363,1521813.445,13.760320214432697,100.62713097039108
สถานีตำรวจนครบาลชนะสงคราม,661741.602,1521683.937,13.759980447996757,100.49604370115564
สถานีตำรวจนครบาลบางกอกน้อย,659105.1612,1521667.251,13.75997645425366,100.47166250418394
สถานีตำรวจนครบาลพญาไท,665452.957,1521642.02,13.75939077813884,100.53036117755086
สถานีตำรวจนครบาลนางเลิ้ง,663001.374,1521422.02,13.757541960585113,100.5076780689507
สถานีตำรวจนครบาลบางขุนนนท์,658558.8879,1521373.043,13.757347172956463,100.46659429099806
สถานีตำรวจนครบาลฉลองกรุง,694646.4513,1521367.493,13.755085191898068,100.80028080078404
สถานีตำรวจนครบาลสำราญราษฎร์,662600.5172,1520770.147,13.751672303144959,100.50393362814138
สถานีตำรวจนครบาลมักกะสัน,671095.7881,1520262.414,13.746591294826606,100.58245702628427
สถานีตำรวจนครบาลพลับพลาไชย 1,663341.9297,1519933.377,13.74406680018443,100.51074095981478
สถานีตำรวจนครบาลพระราชวัง,661579.3584,1519813.298,13.743080686229069,100.49443609721702
สถานีตำรวจนครบาลบางเสาธง,657839.2268,1519809.717,13.743255428870171,100.45985173049901
สถานีตำรวจนครบาลบางกอกใหญ่,660755.4941,1519648.735,13.741639218825547,100.48680867370935
สถานีตำรวจนครบาลคลองตัน,674886.7512,1519640.918,13.740746431180327,100.61747112768411
สถานีตำรวจนครบาลจักรวรรดิ์,662420.0921,1519558.223,13.740727824560757,100.50219540285828
สถานีตำรวจนครบาลทองหล่อ,671227.0533,1519094.034,13.736022850683678,100.58359981758932
สถานีตำรวจนครบาลบุปผาราม,661089.9964,1519053.3,13.736238351883648,100.48986769624481
สถานีตำรวจนครบาลท่าพระ,658476.7654,1518292.522,13.72950621493298,100.4656617119728
สถานีตำรวจนครบาลลุมพินี,667163.6149,1518573.872,13.73155941522333,100.54599794523565
สถานีตำรวจนครบาลสมเด็จเจ้าพระย,663256.6451,1518489.871,13.731023731876746,100.5098688122043
สถานีตำรวจนครบาลบางรัก,664697.8838,1518371.024,13.729867610156479,100.52318776082006
สถานีตำรวจนครบาลบางยี่เรือ,660761.8963,1518003.856,13.726770585833142,100.48677414785857
สถานีตำรวจนครบาลประเวศ,683604.2433,1517901.011,13.72447915677714,100.69795871285964
สถานีตำรวจนครบาลสำเหร่,662240.6643,1517544.795,13.722538392895402,100.50042055352243
สถานีตำรวจนครบาลตลาดพลู,659397.4279,1516968.852,13.717490626262206,100.47409968846954
สถานีตำรวจนครบาลยานนาวา,664303.6332,1517306.15,13.720264676805002,100.51948052544667
สถานีตำรวจนครบาลทุ่งมหาเมฆ,666466.5539,1517150.284,13.718732003870837,100.53946895751778
สถานีตำรวจนครบาลบางโพงพาง,666460.7543,1517118.386,13.718444014465373,100.53941345740832
สถานีตำรวจนครบาลภาษีเจริญ,655377.9412,1516676.914,13.715070621335313,100.43692000093473
สถานีตำรวจนครบาลวัดพระยาไกร,662491.1858,1515267.682,13.701941302482375,100.50260592715989
สถานีตำรวจนครบาลบุคคโล,661044.4134,1515057.469,13.700122052358758,100.48921842535076
สถานีตำรวจนครบาลบางคอแหลม,662096.7462,1513394.36,13.685030264746919,100.49885203027983
สถานีตำรวจนครบาลราษฎร์บูรณะ,662059.134,1513303.15,13.684207911142893,100.49849910931184
สถานีตำรวจนครบาลท่าข้าม,656516.0755,1508294.558,13.639238301905149,100.44698008901788
สถานีตำรวจนครบาลทุ่งครุ,663010.861,1507035.48,13.627500397218256,100.50693735772147
สถานีตำรวจนครบาลเทียนทะเล,655526.1184,1506159.442,13.619991256492884,100.43771333569413
สถานีตำรวจนครบาลสายไหม,677799.4533,1539383.842,13.919012315604855,100.64565559994699
สถานีตำรวจนครบาลบางเขน,672688.3266,1534474.3,13.874951927961286,100.59805746723512
สถานีตำรวจนครบาลพหลโยธิน,669675.2885,1529021.406,13.82584550342099,100.56985133332844
สถานีตำรวจนครบาลบางมด,657361.9939,1512121.798,13.673788269053615,100.45501090673305
สถานีตำรวจนครบาลบางขุนเทียน,656225.9537,1513424.828,13.685628240543606,100.44458098696563
สถานีตำรวจนครบาลบางบอน,648244.5415,1508390.108,13.640535649338165,100.37053123836472
สถานีตำรวจนครบาลหลักสอง,649463.8402,1516269.464,13.711699349516275,100.38221691715536
สถานีตำรวจนครบาลเพชรเกษม,650573.528,1514514.063,13.695773765400851,100.39238353078393
สถานีตำรวจนครบาลหนองแขม,645496.421,1512383.688,13.676775445042884,100.34533438542148
สถานีตำรวจนครบาลศาลาแดง,646287.3062,1520663.464,13.751582099060366,100.35307450663642
สถานีตำรวจนครบาลหนองค้างพลู,646158.8422,1516430.964,13.71332824297387,100.3516672842075
สถานีตำรวจนครบาลลำหิน,697153.8857,1536755.721,13.893986130801462,100.82454669241164
สถานีตำรวจนครบาลหนองจอก,701898.9531,1532669.595,13.85672680319469,100.86814755380868
สถานีตำรวจนครบาลดอนเมือง,673429.2053,1541073.405,13.934553032766038,100.60532282032159
สถานีตำรวจนครบาลทุ่งสองห้อง,670319.3004,1535671.976,13.88591956837419,100.57621356991638
สถานีตำรวจนครบาลบางพลัด,661119.1688,1525512.734,13.794624150174613,100.49050723304723
สถานีตำรวจนครบาลลาดกระบัง,690696.3906,1517622.213,13.721499893157006,100.76350595799997
สถานีตำรวจนครบาลบางนา,677888.384,1512197.308,13.673284095908235,100.64475594734172
สถานีตำรวจนครบาลพระโขนง,672986.0315,1516101.788,13.708872062757784,100.59968004148877
สถานีตำรวจนครบาลอุดมสุข,682121.0449,1512508.796,13.675836660715891,100.68389931252861
สถานีตำรวจนครบาลธรรมศาลา,647505.3774,1523321.438,13.775547020210457,100.36447801278507
สถานีตำรวจนครบาลคันนายาว,680523.5292,1532130.701,13.853285407885085,100.67039154134898
สถานีตำรวจนครบาลนิมิตรใหม่,688916.9252,1537983.574,13.905640812115829,100.74842733848767
สถานีตำรวจนครบาลโชคชัย,672240.2248,1525663.654,13.795343077641258,100.59336967344869
สถานีตำรวจนครบาลแสมดำ,651433.2423,1507657.323,13.63374722084891,100.39996581198507
สถานีตำรวจนครบาลท่าเรือ,670935.8612,1516129.185,13.709241615766558,100.5807279861915
สถานีตำรวจนครบาลลำผักชี,699542.4239,1527425.48,13.809499035398657,100.84597715231047
สถานีตำรวจนครบาลประชาชื่น,667179.7465,1530808.63,13.842146516519307,100.54687510240818
สถานีตำรวจนครบาลปากคลองสาน,663249.7353,1518502.843,13.731141377033621,100.50980567345633
สถานีตำรวจนครบาลสุวินทวงศ์,708560.4631,1527162.491,13.806481283012333,100.9293511468162
สถานีตำรวจนครบาลปทุมวัน,664676.9444,1519131.816,13.736745588577927,100.52303855571132
สถานีตำรวจนครบาลจรเข้น้อย,693686.7206,1517227.313,13.717731958253685,100.79112310795514
สถานีตำรวจนครบาลประชาสำราญ,702778.2064,1536926.956,13.895139268278111,100.87658951173266
สถานีตำรวจนครบาลพลับพลาไชย 2,663330.2725,1519901.377,13.743778211616599,100.51063131561519
